{
  "version": "2019-02-11",
  "type": "doc",
  "content": [
    {
      "type": "heading",
      "attrs": {
        "level": 1
      },
      "content": [
        {
          "type": "text",
          "text": "Sashimi"
        }
      ]
    },
    {
      "type": "paragraph",
      "content": [
        {
          "type": "text",
          "text": "Sashimi is one of those dishes where you either love it or you're wrong. Just kidding."
        }
      ]
    },
    {
      "type": "place",
      "attrs": {
        "placeId": "e4a9b005-bafc-480b-9082-62188115db1e",
        "placeName": "The Bettership"
      }
    },
    {
      "type": "place",
      "attrs": {
        "placeId": "ec8ee245-0839-4c02-b634-1a47ba277fd2",
        "placeName": "Ikoi Japanese Restaurant"
      }
    },
    {
      "type": "place",
      "attrs": {
        "placeId": "6a998c1b-3917-48a9-a812-17b52e2c921f",
        "placeName": "Tsukiji Fish Market Restaurant"
      }
    },
    {
      "type": "place",
      "attrs": {
        "placeId": "59b1ad5f-1fb3-461d-9680-70e5982bae8f",
        "placeName": "Shin Yuu Restaurant"
      }
    },
    {
      "type": "place",
      "attrs": {
        "placeId": "f40af7aa-2a59-4dba-8bde-fb4b892a138b",
        "placeName": "Irodori Japanese Restaurant"
      }
    },
    {
      "type": "place",
      "attrs": {
        "placeId": "081a1423-c8fc-4203-b35b-a25d6529ba1d",
        "placeName": "Standing Sushi Bar"
      }
    },
    {
      "type": "place",
      "attrs": {
        "placeId": "2ba693c4-93c4-4e58-a8bb-d1edd9bccc3c",
        "placeName": "Himawari"
      }
    },
    {
      "type": "place",
      "attrs": {
        "placeId": "c950d565-140a-4e78-96d9-94f038879ffc",
        "placeName": "Wasabi Tei"
      }
    },
    {
      "type": "place",
      "attrs": {
        "placeId": "572c470b-a769-430a-9ccc-13d5dbafc351",
        "placeName": "Kushi @ Macpherson"
      }
    },
    {
      "type": "place",
      "attrs": {
        "placeId": "878704fb-f81e-416f-92b8-d7e41407f0a9",
        "placeName": "Shin Minori Japanese Restaurant"
      }
    },
    {
      "type": "place",
      "attrs": {
        "placeId": "b178e64e-1416-4d8d-84bf-5b81539d409c",
        "placeName": "Mitsuba Japanese Restaurant"
      }
    },
    {
      "type": "place",
      "attrs": {
        "placeId": "ebc6356a-434e-40d8-a980-e322b85c5e2f",
        "placeName": "Hokkaido Sushi Fine Dining"
      }
    }
  ]
}
